STARLINK-30120
1 56824U 23079B   26061.16668981  .00104426  00000+0  69606-2 0  9991
2 56824  42.9998 148.3259 0001759 251.4765  43.1654 15.05977020  5815
